{
    "links": {
        "self": "http://www.neowsapp.com/rest/v1/neo/3755193?api_key=iIulBulltgU6a56xZRHN4H3l9WmuAYTsLGpBGhQ2"
    },
    "id": "3755193",
    "neo_reference_id": "3755193",
    "name": "(2016 NM22)",
    "designation": "2016 NM22",
    "nasa_jpl_url": "http://ssd.jpl.nasa.gov/sbdb.cgi?sstr=3755193",
    "absolute_magnitude_h": 23.7,
    "estimated_diameter": {
        "kilometers": {
            "estimated_diameter_min": 0.0483676488,
            "estimated_diameter_max": 0.1081533507
        },
        "meters": {
            "estimated_diameter_min": 48.3676488219,
            "estimated_diameter_max": 108.1533506775
        },
        "miles": {
            "estimated_diameter_min": 0.0300542543,
            "estimated_diameter_max": 0.0672033557
        },
        "feet": {
            "estimated_diameter_min": 158.6865169607,
            "estimated_diameter_max": 354.8338390368
        }
    },
    "is_potentially_hazardous_asteroid": false,
    "close_approach_data": [
        {
            "close_approach_date": "2016-06-30",
            "close_approach_date_full": "2016-Jun-30 13:51",
            "epoch_date_close_approach": 1467294660000,
            "relative_velocity": {
                "kilometers_per_second": "7.8544435174",
                "kilometers_per_hour": "28275.9966627406",
                "miles_per_hour": "17569.6047041346"
            },
            "miss_distance": {
                "astronomical": "0.1138295476",
                "lunar": "44.2796940164",
                "kilometers": "17028657.864023612",
                "miles": "10581117.3437733656"
            },
            "orbiting_body": "Earth"
        }
    ],
    "orbital_data": {
        "orbit_id": "8",
        "orbit_determination_date": "2017-04-06 08:25:05",
        "first_observation_date": "2016-07-09",
        "last_observation_date": "2016-08-02",
        "data_arc_in_days": 24,
        "observations_used": 39,
        "orbit_uncertainty": "7",
        "minimum_orbit_intersection": ".101179",
        "jupiter_tisserand_invariant": "3.504",
        "epoch_osculation": "2459000.5",
        "eccentricity": ".5106012622105135",
        "semi_major_axis": "2.15589591076315",
        "inclination": "9.830605608623385",
        "ascending_node_longitude": "129.0596401835593",
        "orbital_period": "1156.219021859398",
        "perihelion_distance": "1.055092737533001",
        "perihelion_argument": "132.1067969732267",
        "aphelion_distance": "3.256699083993299",
        "perihelion_time": "2458708.483714835232",
        "mean_anomaly": "90.9221009789791",
        "mean_motion": ".3113596932707944",
        "equinox": "J2000",
        "orbit_class": {
            "orbit_class_type": "AMO",
            "orbit_class_description": "Near-Earth asteroid orbits similar to that of 1221 Amor",
            "orbit_class_range": "1.017 AU < q (perihelion) < 1.3 AU"
        }
    },
    "is_sentry_object": false
}